[{"OBJECT_NAME":"STARLINK-35011","OBJECT_ID":"2025-235AA","EPOCH":"2026-03-09T19:29:51.230400","MEAN_MOTION":15.30201757,"ECCENTRICITY":0.00010448,"INCLINATION":53.1598,"RA_OF_ASC_NODE":244.4566,"ARG_OF_PERICENTER":64.9413,"MEAN_ANOMALY":295.1696,"EPHEMERIS_TYPE":0,"CLASSIFICATION_TYPE":"U","NORAD_CAT_ID":66082,"ELEMENT_SET_NO":999,"REV_AT_EPOCH":2294,"BSTAR":0.0010956229,"MEAN_MOTION_DOT":0.00032233,"MEAN_MOTION_DDOT":0},{"OBJECT_NAME":"OV1-9 R\/B","OBJECT_ID":"1966-111D","EPOCH":"2026-03-09T11:11:11.790816","MEAN_MOTION":10.49794392,"ECCENTRICITY":0.22219732,"INCLINATION":99.1017,"RA_OF_ASC_NODE":33.3571,"ARG_OF_PERICENTER":215.4287,"MEAN_ANOMALY":127.6991,"EPHEMERIS_TYPE":0,"CLASSIFICATION_TYPE":"U","NORAD_CAT_ID":2622,"ELEMENT_SET_NO":999,"REV_AT_EPOCH":23443,"BSTAR":0.00023551925,"MEAN_MOTION_DOT":5.76e-6,"MEAN_MOTION_DDOT":0}]
